[{"OBJECT_NAME":"ONEWEB-0509","OBJECT_ID":"2022-138Q","EPOCH":"2025-12-17T04:58:44.119776","MEAN_MOTION":13.19724399,"ECCENTRICITY":0.00019499,"INCLINATION":87.9211,"RA_OF_ASC_NODE":341.1584,"ARG_OF_PERICENTER":84.7882,"MEAN_ANOMALY":275.3474,"EPHEMERIS_TYPE":0,"CLASSIFICATION_TYPE":"U","NORAD_CAT_ID":54127,"ELEMENT_SET_NO":999,"REV_AT_EPOCH":15280,"BSTAR":1.7084313e-5,"MEAN_MOTION_DOT":2.0e-7,"MEAN_MOTION_DDOT":0},{"OBJECT_NAME":"ONEWEB-0510","OBJECT_ID":"2022-138R","EPOCH":"2025-12-17T07:33:52.572384","MEAN_MOTION":13.20770503,"ECCENTRICITY":0.00015033,"INCLINATION":87.9207,"RA_OF_ASC_NODE":310.7065,"ARG_OF_PERICENTER":95.0764,"MEAN_ANOMALY":265.0541,"EPHEMERIS_TYPE":0,"CLASSIFICATION_TYPE":"U","NORAD_CAT_ID":54128,"ELEMENT_SET_NO":999,"REV_AT_EPOCH":15527,"BSTAR":0.00026792584,"MEAN_MOTION_DOT":1.22e-6,"MEAN_MOTION_DDOT":0},{"OBJECT_NAME":"ONEWEB-0511","OBJECT_ID":"2022-138S","EPOCH":"2025-12-17T04:54:11.567520","MEAN_MOTION":13.19725125,"ECCENTRICITY":0.0002035,"INCLINATION":87.9213,"RA_OF_ASC_NODE":341.1626,"ARG_OF_PERICENTER":93.1242,"MEAN_ANOMALY":267.0124,"EPHEMERIS_TYPE":0,"CLASSIFICATION_TYPE":"U","NORAD_CAT_ID":54129,"ELEMENT_SET_NO":999,"REV_AT_EPOCH":15283,"BSTAR":2.8866358e-5,"MEAN_MOTION_DOT":2.5e-7,"MEAN_MOTION_DDOT":0},{"OBJECT_NAME":"ONEWEB-0512","OBJECT_ID":"2022-138T","EPOCH":"2025-12-17T06:31:59.270592","MEAN_MOTION":13.19725383,"ECCENTRICITY":0.00021412,"INCLINATION":87.9198,"RA_OF_ASC_NODE":341.1726,"ARG_OF_PERICENTER":83.7662,"MEAN_ANOMALY":276.3715,"EPHEMERIS_TYPE":0,"CLASSIFICATION_TYPE":"U","NORAD_CAT_ID":54130,"ELEMENT_SET_NO":999,"REV_AT_EPOCH":15281,"BSTAR":-0.00015767096,"MEAN_MOTION_DOT":-5.0e-7,"MEAN_MOTION_DDOT":0},{"OBJECT_NAME":"ONEWEB-0513","OBJECT_ID":"2022-138U","EPOCH":"2025-12-17T06:37:37.511040","MEAN_MOTION":13.20260231,"ECCENTRICITY":0.00026951,"INCLINATION":87.9213,"RA_OF_ASC_NODE":341.1325,"ARG_OF_PERICENTER":86.1474,"MEAN_ANOMALY":273.9967,"EPHEMERIS_TYPE":0,"CLASSIFICATION_TYPE":"U","NORAD_CAT_ID":54131,"ELEMENT_SET_NO":999,"REV_AT_EPOCH":15271,"BSTAR":-0.00012814373,"MEAN_MOTION_DOT":-3.9e-7,"MEAN_MOTION_DDOT":0},{"OBJECT_NAME":"ONEWEB-0514","OBJECT_ID":"2022-138V","EPOCH":"2025-12-16T23:38:01.600800","MEAN_MOTION":13.19724736,"ECCENTRICITY":0.00017567,"INCLINATION":87.9203,"RA_OF_ASC_NODE":341.215,"ARG_OF_PERICENTER":91.0602,"MEAN_ANOMALY":269.0732,"EPHEMERIS_TYPE":0,"CLASSIFICATION_TYPE":"U","NORAD_CAT_ID":54132,"ELEMENT_SET_NO":999,"REV_AT_EPOCH":15279,"BSTAR":0.00010633663,"MEAN_MOTION_DOT":5.6e-7,"MEAN_MOTION_DDOT":0},{"OBJECT_NAME":"ONEWEB-0515","OBJECT_ID":"2022-138W","EPOCH":"2025-12-17T07:15:42.194016","MEAN_MOTION":13.20770816,"ECCENTRICITY":9.755e-5,"INCLINATION":87.9208,"RA_OF_ASC_NODE":310.696,"ARG_OF_PERICENTER":73.1025,"MEAN_ANOMALY":287.0215,"EPHEMERIS_TYPE":0,"CLASSIFICATION_TYPE":"U","NORAD_CAT_ID":54133,"ELEMENT_SET_NO":999,"REV_AT_EPOCH":15529,"BSTAR":0.00022995235,"MEAN_MOTION_DOT":1.06e-6,"MEAN_MOTION_DDOT":0},{"OBJECT_NAME":"ONEWEB-0516","OBJECT_ID":"2022-138X","EPOCH":"2025-12-17T08:07:31.086336","MEAN_MOTION":13.1972513,"ECCENTRICITY":0.00018016,"INCLINATION":87.9193,"RA_OF_ASC_NODE":341.1639,"ARG_OF_PERICENTER":83.2511,"MEAN_ANOMALY":276.8827,"EPHEMERIS_TYPE":0,"CLASSIFICATION_TYPE":"U","NORAD_CAT_ID":54134,"ELEMENT_SET_NO":999,"REV_AT_EPOCH":15284,"BSTAR":-0.00025722093,"MEAN_MOTION_DOT":-9.0e-7,"MEAN_MOTION_DDOT":0},{"OBJECT_NAME":"ONEWEB-0517","OBJECT_ID":"2022-138Y","EPOCH":"2025-12-17T00:21:14.318784","MEAN_MOTION":13.19724067,"ECCENTRICITY":0.00019956,"INCLINATION":87.9213,"RA_OF_ASC_NODE":341.2092,"ARG_OF_PERICENTER":94.9745,"MEAN_ANOMALY":265.1616,"EPHEMERIS_TYPE":0,"CLASSIFICATION_TYPE":"U","NORAD_CAT_ID":54135,"ELEMENT_SET_NO":999,"REV_AT_EPOCH":15280,"BSTAR":4.301066e-5,"MEAN_MOTION_DOT":3.0e-7,"MEAN_MOTION_DDOT":0},{"OBJECT_NAME":"ONEWEB-0518","OBJECT_ID":"2022-138Z","EPOCH":"2025-12-17T08:05:14.736768","MEAN_MOTION":13.19724852,"ECCENTRICITY":0.00019474,"INCLINATION":87.919,"RA_OF_ASC_NODE":341.166,"ARG_OF_PERICENTER":83.8607,"MEAN_ANOMALY":276.2747,"EPHEMERIS_TYPE":0,"CLASSIFICATION_TYPE":"U","NORAD_CAT_ID":54136,"ELEMENT_SET_NO":999,"REV_AT_EPOCH":15284,"BSTAR":3.450619e-6,"MEAN_MOTION_DOT":1.4e-7,"MEAN_MOTION_DDOT":0},{"OBJECT_NAME":"ONEWEB-0519","OBJECT_ID":"2022-138AA","EPOCH":"2025-12-16T23:35:45.939840","MEAN_MOTION":13.19726726,"ECCENTRICITY":0.00019876,"INCLINATION":87.9207,"RA_OF_ASC_NODE":341.2063,"ARG_OF_PERICENTER":92.5974,"MEAN_ANOMALY":267.5386,"EPHEMERIS_TYPE":0,"CLASSIFICATION_TYPE":"U","NORAD_CAT_ID":54137,"ELEMENT_SET_NO":999,"REV_AT_EPOCH":15280,"BSTAR":0.00011078188,"MEAN_MOTION_DOT":5.7e-7,"MEAN_MOTION_DDOT":0},{"OBJECT_NAME":"ONEWEB-0520","OBJECT_ID":"2022-138AB","EPOCH":"2025-12-17T05:53:19.453056","MEAN_MOTION":13.19724758,"ECCENTRICITY":0.00020164,"INCLINATION":87.9211,"RA_OF_ASC_NODE":341.1587,"ARG_OF_PERICENTER":80.7412,"MEAN_ANOMALY":279.3949,"EPHEMERIS_TYPE":0,"CLASSIFICATION_TYPE":"U","NORAD_CAT_ID":54138,"ELEMENT_SET_NO":999,"REV_AT_EPOCH":15282,"BSTAR":-8.3735141e-5,"MEAN_MOTION_DOT":-2.1e-7,"MEAN_MOTION_DDOT":0},{"OBJECT_NAME":"ONEWEB-0521","OBJECT_ID":"2022-138AC","EPOCH":"2025-12-17T06:41:05.285760","MEAN_MOTION":13.19725769,"ECCENTRICITY":0.00018883,"INCLINATION":87.921,"RA_OF_ASC_NODE":341.1368,"ARG_OF_PERICENTER":94.7507,"MEAN_ANOMALY":265.3842,"EPHEMERIS_TYPE":0,"CLASSIFICATION_TYPE":"U","NORAD_CAT_ID":54139,"ELEMENT_SET_NO":999,"REV_AT_EPOCH":15277,"BSTAR":0.00019393709,"MEAN_MOTION_DOT":9.1e-7,"MEAN_MOTION_DDOT":0},{"OBJECT_NAME":"ONEWEB-0522","OBJECT_ID":"2022-138AD","EPOCH":"2025-12-17T06:11:30.961536","MEAN_MOTION":13.19724639,"ECCENTRICITY":0.00020157,"INCLINATION":87.9209,"RA_OF_ASC_NODE":341.1422,"ARG_OF_PERICENTER":84.9031,"MEAN_ANOMALY":275.2332,"EPHEMERIS_TYPE":0,"CLASSIFICATION_TYPE":"U","NORAD_CAT_ID":54140,"ELEMENT_SET_NO":999,"REV_AT_EPOCH":15281,"BSTAR":-3.2693979e-5,"MEAN_MOTION_DOT":0,"MEAN_MOTION_DDOT":0},{"OBJECT_NAME":"ONEWEB-0523","OBJECT_ID":"2022-138AE","EPOCH":"2025-12-17T06:57:30.190464","MEAN_MOTION":13.20770384,"ECCENTRICITY":0.00012952,"INCLINATION":87.9202,"RA_OF_ASC_NODE":310.7161,"ARG_OF_PERICENTER":103.732,"MEAN_ANOMALY":256.3957,"EPHEMERIS_TYPE":0,"CLASSIFICATION_TYPE":"U","NORAD_CAT_ID":54141,"ELEMENT_SET_NO":999,"REV_AT_EPOCH":15529,"BSTAR":0.00015446039,"MEAN_MOTION_DOT":7.6e-7,"MEAN_MOTION_DDOT":0},{"OBJECT_NAME":"ONEWEB-0524","OBJECT_ID":"2022-138AF","EPOCH":"2025-12-17T06:41:36.659328","MEAN_MOTION":13.20771291,"ECCENTRICITY":0.00010889,"INCLINATION":87.92,"RA_OF_ASC_NODE":310.7204,"ARG_OF_PERICENTER":58.6705,"MEAN_ANOMALY":301.4534,"EPHEMERIS_TYPE":0,"CLASSIFICATION_TYPE":"U","NORAD_CAT_ID":54142,"ELEMENT_SET_NO":999,"REV_AT_EPOCH":15529,"BSTAR":-0.00018658259,"MEAN_MOTION_DOT":-6.3e-7,"MEAN_MOTION_DDOT":0},{"OBJECT_NAME":"ONEWEB-0525","OBJECT_ID":"2022-138AG","EPOCH":"2025-12-17T06:38:48.957792","MEAN_MOTION":13.19725485,"ECCENTRICITY":0.00020033,"INCLINATION":87.9203,"RA_OF_ASC_NODE":341.158,"ARG_OF_PERICENTER":80.8447,"MEAN_ANOMALY":279.2913,"EPHEMERIS_TYPE":0,"CLASSIFICATION_TYPE":"U","NORAD_CAT_ID":54143,"ELEMENT_SET_NO":999,"REV_AT_EPOCH":15283,"BSTAR":-5.0157423e-5,"MEAN_MOTION_DOT":-7.0e-8,"MEAN_MOTION_DDOT":0},{"OBJECT_NAME":"ONEWEB-0526","OBJECT_ID":"2022-138AH","EPOCH":"2025-12-17T05:37:23.934720","MEAN_MOTION":13.19725002,"ECCENTRICITY":0.00018397,"INCLINATION":87.9211,"RA_OF_ASC_NODE":341.1555,"ARG_OF_PERICENTER":84.3084,"MEAN_ANOMALY":275.8259,"EPHEMERIS_TYPE":0,"CLASSIFICATION_TYPE":"U","NORAD_CAT_ID":54144,"ELEMENT_SET_NO":999,"REV_AT_EPOCH":15280,"BSTAR":0.0001424329,"MEAN_MOTION_DOT":7.0e-7,"MEAN_MOTION_DDOT":0},{"OBJECT_NAME":"ONEWEB-0529","OBJECT_ID":"2022-138AJ","EPOCH":"2025-12-17T00:14:25.324512","MEAN_MOTION":13.19724972,"ECCENTRICITY":0.00019669,"INCLINATION":87.9199,"RA_OF_ASC_NODE":341.2267,"ARG_OF_PERICENTER":81.1694,"MEAN_ANOMALY":278.9661,"EPHEMERIS_TYPE":0,"CLASSIFICATION_TYPE":"U","NORAD_CAT_ID":54145,"ELEMENT_SET_NO":999,"REV_AT_EPOCH":15279,"BSTAR":2.5416782e-5,"MEAN_MOTION_DOT":2.3e-7,"MEAN_MOTION_DDOT":0},{"OBJECT_NAME":"ONEWEB-0531","OBJECT_ID":"2022-138AK","EPOCH":"2025-12-17T06:21:09.571104","MEAN_MOTION":13.20771937,"ECCENTRICITY":9.628e-5,"INCLINATION":87.9209,"RA_OF_ASC_NODE":310.717,"ARG_OF_PERICENTER":96.0149,"MEAN_ANOMALY":264.1094,"EPHEMERIS_TYPE":0,"CLASSIFICATION_TYPE":"U","NORAD_CAT_ID":54146,"ELEMENT_SET_NO":999,"REV_AT_EPOCH":15529,"BSTAR":7.8736215e-5,"MEAN_MOTION_DOT":4.5e-7,"MEAN_MOTION_DDOT":0},{"OBJECT_NAME":"ONEWEB-0535","OBJECT_ID":"2022-138AL","EPOCH":"2025-12-16T23:12:59.834016","MEAN_MOTION":13.19723968,"ECCENTRICITY":0.00016289,"INCLINATION":87.9212,"RA_OF_ASC_NODE":341.2031,"ARG_OF_PERICENTER":97.5932,"MEAN_ANOMALY":262.5386,"EPHEMERIS_TYPE":0,"CLASSIFICATION_TYPE":"U","NORAD_CAT_ID":54147,"ELEMENT_SET_NO":999,"REV_AT_EPOCH":15280,"BSTAR":3.8520982e-5,"MEAN_MOTION_DOT":2.8e-7,"MEAN_MOTION_DDOT":0},{"OBJECT_NAME":"ONEWEB-0536","OBJECT_ID":"2022-138AM","EPOCH":"2025-12-17T07:52:03.192672","MEAN_MOTION":13.20769978,"ECCENTRICITY":7.979e-5,"INCLINATION":87.9197,"RA_OF_ASC_NODE":310.7471,"ARG_OF_PERICENTER":88.1495,"MEAN_ANOMALY":271.973,"EPHEMERIS_TYPE":0,"CLASSIFICATION_TYPE":"U","NORAD_CAT_ID":54148,"ELEMENT_SET_NO":999,"REV_AT_EPOCH":15529,"BSTAR":0.00024113139,"MEAN_MOTION_DOT":1.11e-6,"MEAN_MOTION_DDOT":0},{"OBJECT_NAME":"ONEWEB-0527","OBJECT_ID":"2022-166A","EPOCH":"2025-12-17T06:32:03.048864","MEAN_MOTION":13.21825054,"ECCENTRICITY":0.00017668,"INCLINATION":87.9223,"RA_OF_ASC_NODE":280.284,"ARG_OF_PERICENTER":75.6729,"MEAN_ANOMALY":284.4601,"EPHEMERIS_TYPE":0,"CLASSIFICATION_TYPE":"U","NORAD_CAT_ID":54642,"ELEMENT_SET_NO":999,"REV_AT_EPOCH":14750,"BSTAR":-0.00012728996,"MEAN_MOTION_DOT":-4.0e-7,"MEAN_MOTION_DDOT":0}]
